EUTELSAT 8 WEST B       
1 40875U 15039B   25294.33496889 -.00000060  00000+0  00000+0 0  9999
2 40875   0.0705 350.0398 0003854 224.0223 288.5660  1.00271047 37266
EUTELSAT 9B             
1 41310U 16005A   25294.55235334  .00000069  00000+0  00000+0 0  9996
2 41310   0.0650  65.7734 0003695 175.6358 356.6928  1.00271762 35724
EUTELSAT 65 WEST A      
1 41382U 16014A   25294.53770661 -.00000269  00000+0  00000+0 0  9993
2 41382   0.0601  32.9328 0002289 186.5324 299.1523  1.00272284 35144
EUTELSAT 117 WEST B     
1 41589U 16038B   25294.59880691 -.00000005  00000+0  00000+0 0  9997
2 41589   0.0119  88.2363 0000096  95.8249 304.8426  1.00273110 34270
EUTELSAT 172B           
1 42741U 17029B   25294.58476683  .00000002  00000+0  00000+0 0  9996
2 42741   0.0185 175.5842 0000251 266.7052 330.5152  1.00273854 31331
EUTELSAT 7C             
1 44334U 19034B   25294.30789122  .00000055  00000+0  00000+0 0  9997
2 44334   0.0659 185.0176 0003112   6.0169 316.8247  1.00271467  4448
EUTELSAT 5 WEST B       
1 44624U 19067A   25294.62105779 -.00000034  00000+0  00000+0 0  9998
2 44624   0.0697 351.7548 0003355 225.1216  32.0614  1.00277611 22041
EUTELSAT KONNECT        
1 45027U 20005B   25294.19534822  .00000055  00000+0  00000+0 0  9999
2 45027   0.0705  89.4943 0001548 151.3364 226.6039  1.00270371 21934
